STARLINK-1007           
1 44713U 19074A   23277.53530534  .00007826  00000+0  54392-3 0  9997
2 44713  53.0527 209.2094 0001675  93.8390 266.2790 15.06384546215204
STARLINK-1008           
1 44714U 19074B   23278.11124098  .00028742  00000+0  19420-2 0  9999
2 44714  53.0535 206.6253 0001344  69.9164 290.1969 15.06373502215291
STARLINK-1009           
1 44715U 19074C   23278.10018195  .00026202  00000+0  17723-2 0  9992
2 44715  53.0541 206.6760 0000961  79.5741 280.5356 15.06381675215286
STARLINK-1010           
1 44716U 19074D   23278.11862000  .00028929  00000+0  19543-2 0  9996
2 44716  53.0530 206.5926 0001535  88.3398 271.7766 15.06376020215276
STARLINK-1011           
1 44717U 19074E   23278.11676601  .00018788  00000+0  12776-2 0  9990
2 44717  53.0527 226.6001 0001365  78.4539 281.6603 15.06377257215013
STARLINK-1012           
1 44718U 19074F   23278.08912572  .00014921  00000+0  10192-2 0  9992
2 44718  53.0532 206.7254 0001534  69.1221 290.9932 15.06372865215289
STARLINK-1013           
1 44719U 19074G   23278.09649936  .00027407  00000+0  18523-2 0  9994
2 44719  53.0544 206.6913 0001494  80.0593 280.0565 15.06387809215289
STARLINK-1014           
1 44720U 19074H   23278.11398251  .00039592  00000+0  26642-2 0  9999
2 44720  53.0534 206.6036 0001212  77.1438 282.9686 15.06368693215295
STARLINK-1015           
1 44721U 19074J   23278.10386954  .00025864  00000+0  17496-2 0  9990
2 44721  53.0532 206.6592 0001256  90.7639 269.3494 15.06384373215281
STARLINK-1017           
1 44723U 19074L   23277.79055495 -.00017706  00000+0 -11734-2 0  9996
2 44723  53.0534 208.0649 0001281  95.7896 264.3238 15.06378507215072
STARLINK-1019           
1 44724U 19074M   23278.08544667  .00028411  00000+0  19193-2 0  9994
2 44724  53.0536 206.7423 0001428  82.4882 277.6269 15.06385045215280
STARLINK-1020           
1 44725U 19074N   23278.09096857  .00036646  00000+0  24689-2 0  9994
2 44725  53.0544 226.7140 0001010  71.0470 289.0629 15.06361323215002
STARLINK-1021           
1 44726U 19074P   23278.08175414  .00029083  00000+0  19641-2 0  9990
2 44726  53.0528 206.7578 0001228  89.6888 270.4241 15.06384510215284
STARLINK-1024           
1 44729U 19074S   23277.88209617  .00054147  00000+0  80407-3 0  9991
2 44729  53.0162 131.4930 0007948 149.1242 211.0237 15.54656042216101
STARLINK-1027           
1 44732U 19074V   23278.14626262  .00006722  00000+0  46973-3 0  9990
2 44732  53.0546 226.4659 0001161  90.5642 269.5480 15.06402372215017
STARLINK-1028           
1 44733U 19074W   23278.07806783  .00016751  00000+0  11410-2 0  9991
2 44733  53.0531 206.7736 0001567  79.3214 280.7952 15.06393131215289
STARLINK-1029           
1 44734U 19074X   23277.89376438  .00018887  00000+0  12838-2 0  9997
2 44734  53.0522 127.6002 0000765  97.9261 262.1814 15.06390164216188
STARLINK-1030           
1 44735U 19074Y   23278.15362523  .00013118  00000+0  89840-3 0  9998
2 44735  53.0526 226.4348 0001285 108.0184 252.0945 15.06380054215011
STARLINK-1031           
1 44736U 19074Z   23278.10202905  .00034344  00000+0  23156-2 0  9992
2 44736  53.0540 226.6684 0001426  84.5725 275.5427 15.06364106215014
STARLINK-1032           
1 44737U 19074AA  23278.11308260  .00018331  00000+0  12471-2 0  9991
2 44737  53.0530 226.6170 0001369  75.0103 285.1038 15.06375938215015
STARLINK-1033           
1 44738U 19074AB  23277.21848671  .00449454  98714-4  83303-3 0  9998
2 44738  53.0394 155.0648 0006011 198.2495 260.7586 16.00553004215924
STARLINK-1035           
1 44740U 19074AD  23278.10939179  .00013983  00000+0  95658-3 0  9990
2 44740  53.0531 226.6330 0001435  76.1258 283.9891 15.06368895215012
STARLINK-1036           
1 44741U 19074AE  23278.12046136  .00025167  00000+0  17032-2 0  9991
2 44741  53.0522 226.5831 0001313  86.4525 273.6614 15.06382544215010
STARLINK-1038           
1 44743U 19074AG  23278.10386417  .00008552  00000+0  59275-3 0  9995
2 44743  53.0531 246.6561 0001223  81.3418 278.7710 15.06373423214737
STARLINK-1039           
1 44744U 19074AH  23278.11492819  .00019999  00000+0  13585-2 0  9991
2 44744  53.0522 246.6070 0001454 105.8698 254.2451 15.06377238214730
STARLINK-1041           
1 44746U 19074AK  23278.10017829  .00014469  00000+0  98898-3 0  9994
2 44746  53.0540 246.6739 0001484  84.1869 275.9289 15.06373090214737
STARLINK-1042           
1 44747U 19074AL  23278.12966488 -.00000248  00000+0  22377-5 0  9993
2 44747  53.0539 246.5401 0001625 107.8611 252.2555 15.06383217214743
STARLINK-1043           
1 44748U 19074AM  23278.09280602  .00014429  00000+0  98635-3 0  9990
2 44748  53.0543 246.7060 0001376  79.6702 280.4442 15.06371941214730
STARLINK-1046           
1 44751U 19074AQ  23278.10755388  .00022868  00000+0  15497-2 0  9994
2 44751  53.0522 246.6415 0002280  87.7916 272.3334 15.06386139214731
STARLINK-1047           
1 44752U 19074AR  23278.12783395  .00022411  00000+0  15193-2 0  9993
2 44752  53.0539 226.5484 0001163  75.4682 284.6435 15.06384511215018
STARLINK-1048           
1 44753U 19074AS  23277.80162098  .00005601  00000+0  39466-3 0  9991
2 44753  53.0515 208.0173 0002461  78.7556 281.3710 15.06396706215076
STARLINK-1049           
1 44754U 19074AT  23278.25001157  .00256388  00000+0  95482-3 0  9990
2 44754  53.0343 117.0845 0004974 261.1087  11.1096 15.86783356216558
STARLINK-1052           
1 44757U 19074AW  23277.85018730  .00042089  00000+0  26829-2 0  9992
2 44757  53.0539 227.5530 0002843  90.7147 269.4168 15.08339680214807
STARLINK-1053           
1 44758U 19074AX  23278.08913012 -.00005147  00000+0 -32709-3 0  9997
2 44758  53.0535 246.8100 0001454  75.0289 285.0861 15.06376301214736
STARLINK-1054           
1 44759U 19074AY  23278.07068849  .00026977  00000+0  18246-2 0  9997
2 44759  53.0539 246.8049 0001530 139.7384 220.3718 15.06367463214734
STARLINK-1055           
1 44760U 19074AZ  23277.89955235  .00015379  00000+0  70141-3 0  9999
2 44760  53.0576 231.2762 0002129  94.9801 265.1438 15.20826899214777
STARLINK-1056           
1 44761U 19074BA  23278.13335013  .00001361  00000+0  11030-3 0  9992
2 44761  53.0554 246.5236 0001812 115.2940 244.8237 15.06377524214746
STARLINK-1057           
1 44762U 19074BB  23278.13520410  .00038510  00000+0  25919-2 0  9996
2 44762  53.0532 226.5166 0001611  77.3393 282.7776 15.06374277215012
STARLINK-1058           
1 44763U 19074BC  23278.09760278  .00016779  00000+0  11942-2 0  9994
2 44763  53.0531 246.7753 0001487  86.9074 273.2084 15.04749317214735
STARLINK-1059           
1 44764U 19074BD  23277.94476368  .00015238  00000+0  62072-3 0  9992
2 44764  53.0778 197.1804 0007770 103.8940 256.2922 15.24666418215259
STARLINK-1060           
1 44765U 19074BE  23278.14994280 -.00008173  00000+0 -53161-3 0  9995
2 44765  53.0535 226.4519 0001715  73.2495 286.8682 15.06317973215013
STARLINK-1061           
1 44766U 19074BF  23278.08174810  .00022351  00000+0  15160-2 0  9996
2 44766  53.0540 246.7587 0001793 118.7438 241.3731 15.06366678214733
STARLINK-1062           
1 44767U 19074BG  23278.07342301 -.00003202  00000+0 -19625-3 0  9995
2 44767  53.0527 246.7848 0001517 106.0661 254.0495 15.06385771214734
STARLINK-1063           
1 44768U 19074BH  23278.09649055  .00013746  00000+0  94056-3 0  9997
2 44768  53.0537 246.6889 0001209  89.4147 270.6980 15.06374468214735
STARLINK-1067           
1 44771U 19074BL  23278.08543137 -.00004750  00000+0 -30031-3 0  9994
2 44771  53.0543 246.7410 0001656  92.1178 268.0000 15.06386098214734
STARLINK-1068           
1 44772U 19074BM  23278.14256590  .00016903  00000+0  11519-2 0  9996
2 44772  53.0533 226.4844 0001601 118.6689 241.4461 15.06367636215016
STARLINK-1073           
1 44914U 20001A   23278.22550242  .00035268  00000+0  23735-2 0  9994
2 44914  53.0554   6.1116 0004139  76.6085 283.5366 15.06415392206232
STARLINK-1084           
1 44915U 20001B   23277.98958504 -.00004826  00000+0 -30521-3 0  9990
2 44915  53.0553   7.1711 0001313 106.7037 253.4096 15.06408912206200
STARLINK-1098           
1 44917U 20001D   23277.52885484  .00034098  00000+0  22939-2 0  9993
2 44917  53.0548   9.2376 0001520  85.6603 274.4560 15.06449368206131
STARLINK-1099           
1 44918U 20001E   23278.20611509  .00005089  00000+0  36009-3 0  9997
2 44918  53.0561   6.2285 0001582  90.2109 269.9061 15.06417616206972
STARLINK-1102           
1 44920U 20001G   23277.89327063  .00013190  00000+0  57417-3 0  9991
2 44920  53.0533 345.3842 0003351 312.0235  48.0476 15.22552822206503
STARLINK-1103           
1 44921U 20001H   23277.97390665  .00005782  00000+0  40652-3 0  9990
2 44921  53.0558   7.2305 0001752 104.0220 256.0964 15.06418363206174
STARLINK-1104           
1 44922U 20001J   23277.94167779  .00008094  00000+0  56123-3 0  9995
2 44922  53.0568   7.3846 0001724  80.7369 279.3815 15.06427464206197
STARLINK-1106           
1 44923U 20001K   23278.24690495  .00012365  00000+0  58007-3 0  9995
2 44923  53.0566 352.2470 0002355 120.5532 239.5695 15.20041812206433
STARLINK-1111           
1 44924U 20001L   23278.22182487  .00011739  00000+0  80573-3 0  9998
2 44924  53.0555   6.1506 0003027  94.9423 265.1912 15.06397116206237
STARLINK-1112           
1 44925U 20001M   23277.57308420  .00027132  00000+0  18311-2 0  9997
2 44925  53.0546   9.0429 0001487  92.4041 267.7118 15.06445438206137
STARLINK-1113           
1 44926U 20001N   23277.70209637  .00017392  00000+0  11833-2 0  9992
2 44926  53.0550   8.5486 0001452  97.3009 262.8145 15.06409667206848
STARLINK-1114           
1 44927U 20001P   23277.98222578  .00004254  00000+0  30423-3 0  9992
2 44927  53.0562   7.2030 0001751  82.5527 277.5661 15.06407262206201
STARLINK-1119           
1 44928U 20001Q   23277.97853881  .00002557  00000+0  19041-3 0  9996
2 44928  53.0551   7.2267 0001751  81.0767 279.0420 15.06412179206205
STARLINK-1121           
